BEIDOU-2 IGSO-1 (C06)   
1 36828U 10036A   26086.63883915 -.00000150  00000+0  00000+0 0  9997
2 36828  54.2909 163.6978 0057461 222.7538 133.1758  1.00295665 57273
BEIDOU-2 G4 (C04)       
1 37210U 10057A   26098.55761971 -.00000109  00000+0  00000+0 0  9991
2 37210   3.4740  69.3340 0006899 215.6912 272.5386  1.00271753 56590
BEIDOU-2 IGSO-2 (C07)   
1 37256U 10068A   26086.44836399 -.00000175  00000+0  00000+0 0  9998
2 37256  47.6922 272.8379 0048070 212.2935 326.6285  1.00251076 55976
BEIDOU-2 IGSO-3 (C08)   
1 37384U 11013A   26098.26223424 -.00000174  00000+0  00000+0 0  9992
2 37384  62.3185  40.8123 0034327 189.0928 168.7535  1.00285250 54957
BEIDOU-2 IGSO-4 (C09)   
1 37763U 11038A   26087.66258249 -.00000109  00000+0  00000+0 0  9993
2 37763  54.5871 166.4040 0156581 231.4212 120.2889  1.00260433 53838
BEIDOU-2 IGSO-5 (C10)   
1 37948U 11073A   26097.99711425 -.00000143  00000+0  00000+0 0  9992
2 37948  47.8083 272.4102 0109753 220.8466 156.3677  1.00264860 52430
BEIDOU-2 G5 (C05)       
1 38091U 12008A   26097.82454030  .00000059  00000+0  00000+0 0  9994
2 38091   3.3984  70.0969 0013005 262.2726 219.3966  1.00277287 51665
BEIDOU-2 M3 (C11)       
1 38250U 12018A   26097.84725632 -.00000042  00000+0  00000+0 0  9996
2 38250  55.8176 307.2458 0020080 279.3598  80.4379  1.86230050 94632
BEIDOU-2 M4 (C12)       
1 38251U 12018B   26095.09466574 -.00000060  00000+0  00000+0 0  9999
2 38251  55.7203 306.5582 0011346 286.5726  73.3277  1.86229620 94584
BEIDOU-2 M6 (C14)       
1 38775U 12050B   26098.02638259 -.00000013  00000+0  00000+0 0  9991
2 38775  56.4853  65.2129 0014465 345.7181  14.2210  1.86231058 92002
BEIDOU-2 G6 (C02)       
1 38953U 12059A   26098.54262631 -.00000172  00000+0  00000+0 0  9998
2 38953   4.2451  74.2515 0010992 313.2499  88.6965  1.00271425 49212
BEIDOU-3S IGSO-1S (C31) 
1 40549U 15019A   26082.29086919 -.00000163  00000+0  00000+0 0  9999
2 40549  49.3559 296.4949 0036261 190.1236 255.1180  1.00268843 40213
BEIDOU-3S M2S (C58)     
1 40748U 15037A   26097.98295678 -.00000038  00000+0  00000+0 0  9997
2 40748  54.9329 304.4631 0007659 275.6013  84.3320  1.86232266 72813
BEIDOU-3S M1S (C57)     
1 40749U 15037B   26095.51453534 -.00000056  00000+0  00000+0 0  9992
2 40749  54.9320 304.5362 0004712  43.3650 316.6928  1.86254979 72776
BEIDOU-3S IGSO-2S (C56) 
1 40938U 15053A   26098.40259591 -.00000124  00000+0  00000+0 0  9994
2 40938  49.3310 259.6086 0062505 190.0166 348.8094  1.00276459 38655
BEIDOU-2 IGSO-6 (C13)   
1 41434U 16021A   26098.54724387 -.00000149  00000+0  00000+0 0  9994
2 41434  60.1344  38.7321 0058579 233.1907 217.4487  1.00272319 36781
BEIDOU-2 G7 (C03)       
1 41586U 16037A   26098.54782633 -.00000351  00000+0  00000+0 0  9992
2 41586   1.5476  68.6047 0007653 350.8392  85.1062  1.00276092  6196
BEIDOU-3 M1 (C19)       
1 43001U 17069A   26096.18092463 -.00000029  00000+0  00000+0 0  9997
2 43001  56.6315  65.4544 0012480 313.9919  45.8800  1.86231359 57267
BEIDOU-3 M2 (C20)       
1 43002U 17069B   26098.26732707 -.00000010  00000+0  00000+0 0  9991
2 43002  56.6328  65.4215 0010114 334.3960  25.5348  1.86230860 57293
BEIDOU-3 M7 (C27)       
1 43107U 18003A   26098.00880356 -.00000040  00000+0  00000+0 0  9995
2 43107  54.3908 304.7616 0005100  76.7267 283.3509  1.86232660 56043
BEIDOU-3 M8 (C28)       
1 43108U 18003B   26097.95464377 -.00000040  00000+0  00000+0 0  9990
2 43108  54.3832 304.7459 0002367 293.4794  66.5163  1.86231247 56058
BEIDOU-3 M4 (C22)       
1 43207U 18018A   26098.39702562 -.00000009  00000+0  00000+0 0  9991
2 43207  56.5926  65.4480 0007493 356.1926   3.7830  1.86231340 55440
BEIDOU-3 M3 (C21)       
1 43208U 18018B   26098.46346860 -.00000008  00000+0  00000+0 0  9994
2 43208  56.5920  65.4497 0010155 325.2256  34.6896  1.86231412 55440
BEIDOU-3 M9 (C29)       
1 43245U 18029A   26098.14397238 -.00000035  00000+0  00000+0 0  9997
2 43245  54.2575 302.3980 0001028  56.3817 303.6458  1.86228574 54599
BEIDOU-3 M10 (C30)      
1 43246U 18029B   26098.07868794 -.00000036  00000+0  00000+0 0  9991
2 43246  54.2554 302.4270 0005106  31.9421 328.1066  1.86229332 54579
BEIDOU-2 IGSO-7 (C16)   
1 43539U 18057A   26098.60612922 -.00000109  00000+0  00000+0 0  9997
2 43539  55.1848 163.6675 0102136 237.2229 127.1361  1.00273248 28436
BEIDOU-3 M5 (C23)       
1 43581U 18062A   26096.69202221  .00000004  00000+0  00000+0 0  9997
2 43581  54.0850 184.7352 0003420 293.3730  66.6386  1.86228833 52307
BEIDOU-3 M6 (C24)       
1 43582U 18062B   26097.62904023 -.00000002  00000+0  00000+0 0  9990
2 43582  54.0846 184.6928 0005246  31.8241 328.2549  1.86227723 52328
BEIDOU-3 M12 (C26)      
1 43602U 18067A   26098.10440300 -.00000004  00000+0  00000+0 0  9997
2 43602  54.1793 183.4171 0007999  35.2797 324.8221  1.86227992 51811
BEIDOU-3 M11 (C25)      
1 43603U 18067B   26097.70229833 -.00000002  00000+0  00000+0 0  9997
2 43603  54.1768 183.3945 0004618  25.6874 334.3849  1.86227388 51839
BEIDOU-3 M13 (C32)      
1 43622U 18072A   26098.19463366 -.00000012  00000+0  00000+0 0  9990
2 43622  56.5658  64.9673 0009030 314.3341  45.5726  1.86231291 51356
BEIDOU-3 M14 (C33)      
1 43623U 18072B   26098.06008117 -.00000013  00000+0  00000+0 0  9997
2 43623  56.5674  64.9658 0006887 335.5272  24.4203  1.86231280 51346
BEIDOU-3 M16 (C35)      
1 43647U 18078A   26097.67954885 -.00000039  00000+0  00000+0 0  9995
2 43647  54.1546 302.4573 0008370  36.1165 323.9572  1.86232481 50848
BEIDOU-3 M15 (C34)      
1 43648U 18078B   26097.80885630 -.00000038  00000+0  00000+0 0  9991
2 43648  54.1494 302.4532 0005412  45.3686 314.6928  1.86232367 50867
BEIDOU-3 G1 (C59)       
1 43683U 18085A   26096.38795007 -.00000147  00000+0  00000+0 0  9999
2 43683   2.8927  99.3053 0012773 290.7520  90.8919  1.00650840 27333
BEIDOU-3 M17 (C36)      
1 43706U 18093A   26096.89219106  .00000003  00000+0  00000+0 0  9991
2 43706  54.1684 184.7154 0008247 292.8593  65.0848  1.86228562 50207
BEIDOU-3 M18 (C37)      
1 43707U 18093B   26097.83181505 -.00000003  00000+0  00000+0 0  9999
2 43707  54.1690 184.6758 0006561 329.0595  30.9491  1.86226604 50228
BEIDOU-3 IGSO-1 (C38)   
1 44204U 19023A   26098.54236888 -.00000207  00000+0  00000+0 0  9996
2 44204  58.6027  38.3675 0024921 235.8405 235.6710  1.00261005  6512
BEIDOU-2 G8 (C01)       
1 44231U 19027A   26098.55458635 -.00000244  00000+0  00000+0 0  9998
2 44231   1.4813  74.3191 0011412 277.9952 188.6881  1.00274782 25387
BEIDOU-3 IGSO-2 (C39)   
1 44337U 19035A   26098.58354476 -.00000118  00000+0  00000+0 0  9995
2 44337  55.2342 159.4749 0039067 213.9094 152.2849  1.00288845 24975
BEIDOU-3 M24 (C46)      
1 44542U 19061A   26097.90135807 -.00000003  00000+0  00000+0 0  9995
2 44542  54.3958 185.0984 0008136  11.5079 348.5572  1.86229172 44483
BEIDOU-3 M23 (C45)      
1 44543U 19061B   26098.61843708 -.00000006  00000+0  00000+0 0  9994
2 44543  54.3943 185.0428 0004887 357.2490  35.6109  1.86227361 44508
BEIDOU-3 IGSO-3 (C40)   
1 44709U 19073A   26097.90938757 -.00000162  00000+0  00000+0 0  9994
2 44709  54.9225 281.6538 0041517 188.5001 171.3788  1.00258437 23759
BEIDOU-3 M22 (C44)      
1 44793U 19078A   26098.27726824 -.00000035  00000+0  00000+0 0  9992
2 44793  53.9998 302.2869 0007545  43.0228 317.0538  1.86227386 43346
BEIDOU-3 M21 (C43)      
1 44794U 19078B   26097.88041618 -.00000038  00000+0  00000+0 0  9993
2 44794  53.9732 302.2636 0005406  40.1589 319.8980  1.86227987 43345
BEIDOU-3 M19 (C41)      
1 44864U 19090A   26095.70552223 -.00000034  00000+0  00000+0 0  9999
2 44864  56.4979  65.1844 0020279 293.9957 244.6668  1.86231691 42885
BEIDOU-3 M20 (C42)      
1 44865U 19090B   26095.57248689 -.00000035  00000+0  00000+0 0  9994
2 44865  56.4994  65.2230 0017785 305.7486 233.3254  1.86231595 42867
BEIDOU-3 G2 (C60)       
1 45344U 20017A   26098.54175964 -.00000137  00000+0  00000+0 0  9996
2 45344   2.7243  46.2001 0002885 342.4250  83.2570  1.00272047 22569
BEIDOU-3 G3 (C61)       
1 45807U 20040A   26098.54782633 -.00000350  00000+0  00000+0 0  9990
2 45807   2.2759  67.2309 0004673 331.4319 105.8823  1.00268260 21377
BEIDOU-3 G4 (C62)       
1 56564U 23066A   26098.55363302 -.00000280  00000+0  00000+0 0  9994
2 56564   0.5880 316.4664 0003140 157.5628  62.1299  1.00269563 10698
BEIDOU-3 M28 (C50)      
1 58654U 23207A   26097.95770947 -.00000017  00000+0  00000+0 0  9991
2 58654  55.6930  64.6709 0004873 315.2554  44.6855  1.86229864 15539
BEIDOU-3 M26 (C48)      
1 58655U 23207B   26096.14431875 -.00000033  00000+0  00000+0 0  9994
2 58655  55.6933  64.7185 0005464 298.5224  61.3975  1.86229818 15488
BEIDOU-3 M25 (C47)      
1 61186U 24168B   26097.58004042 -.00000043  00000+0  00000+0 0  9996
2 61186  54.5368 304.6960 0003683 320.9790  38.6290  1.86230389 10462
BEIDOU-3 M27 (C49)      
1 61187U 24168C   26098.18327020 -.00000038  00000+0  00000+0 0  9992
2 61187  54.5313 304.6582 0002825  32.0564 146.9914  1.86230496  7955
